satname,norad_id,inclination_deg,eccentricity,mean_motion_rev_per_day,perigee_km,apogee_km,l1,l2
STARLINK-1524,46047,53.1635,0.0001832,15.30194397,473.9762618544437,476.48733618240385,1 46047U 20055W   26089.48984483  .00000513  00000+0  29475-4 0  9995,2 46047  53.1635  17.2285 0001832 114.5082 245.6111 15.30194397312251
STARLINK-1527,46048,53.1628,0.0001365,15.30200809,474.27717166445564,476.1481361199685,1 46048U 20055X   26089.49618709 -.00000878  00000+0 -17529-4 0  9995,2 46048  53.1628  17.2960 0001365  90.4243 269.6914 15.30200809312237
STARLINK-1540,46051,53.1631,0.0001537,15.30199137,474.16428557386007,476.27100679209707,1 46051U 20055AA  26089.51934038  .00002391  00000+0  92829-4 0  9994,2 46051  53.1631  17.0919 0001537  89.3708 270.7469 15.30199137312274
STARLINK-1541,46052,53.1614,0.0001388,15.30185546,474.30697554020844,476.209478055167,1 46052U 20055AB  26089.05161050 -.00001883  00000+0 -51496-4 0  9992,2 46052  53.1614  19.3054 0001388  92.2197 267.8962 15.30185546312162
STARLINK-1543,46053,53.1612,0.0001256,15.30195398,474.368027450485,476.08959294200577,1 46053U 20055AC  26089.51513349  .00000846  00000+0  40688-4 0  9993,2 46053  53.1612  17.1778 0001256  92.3930 267.7215 15.30195398312267
STARLINK-1548,46054,53.162,0.0001737,15.30176935,474.0934989999223,476.47437743385944,1 46054U 20055AD  26089.06531648  .00002767  00000+0  10561-3 0  9996,2 46054  53.1620  19.2675 0001737 105.4350 254.6843 15.30176935312192
STARLINK-1554,46055,53.1619,0.0001587,15.30192538,474.1497191875342,476.3249802061282,1 46055U 20055AE  26089.52042241  .00002460  00000+0  95184-4 0  9999,2 46055  53.1619  17.2785 0001587  95.0645 265.0537 15.30192538312266
STARLINK-1564,46058,53.1615,0.0001123,15.30194534,474.4617566884608,476.00102322884504,1 46058U 20055AH  26089.51836669  .00000678  00000+0  35003-4 0  9999,2 46058  53.1615  17.6222 0001123  86.4753 273.6377 15.30194534312259
STARLINK-1570,46059,53.1606,0.0001124,15.30196199,474.45610049543757,475.9967365919256,1 46059U 20055AJ  26089.09059545  .00000519  00000+0  29636-4 0  9992,2 46059  53.1606  19.1499 0001124  80.8848 279.2280 15.30196199312150
STARLINK-1572,46060,53.1605,0.0001507,15.30201648,474.1773493774708,476.242948208117,1 46060U 20055AK  26089.49937079  .00012550  00000+0  43511-3 0  9990,2 46060  53.1605  17.4598 0001507  96.7553 263.3619 15.30201648312220
STARLINK-1573,46061,53.1624,0.0001118,15.30199072,474.4516351903094,475.98404533259236,1 46061U 20055AL  26089.20540982  .00006695  00000+0  23797-3 0  9990,2 46061  53.1624  18.5698 0001118  83.6137 276.4991 15.30199072312210
STARLINK-1577,46063,53.1604,0.0001111,15.30198206,474.45901797515944,475.9818339952144,1 46063U 20055AN  26089.49300402  .00016122  00000+0  55531-3 0  9991,2 46063  53.1604  17.2049 0001111  95.5080 264.6047 15.30198206312251
STARLINK-1583,46064,53.1643,0.0001576,15.30201005,474.1319808588969,476.2921564853423,1 46064U 20055AP  26089.52882464  .00003330  00000+0  12452-3 0  9991,2 46064  53.1643  17.0710 0001576  98.3863 261.7316 15.30201005312252
STARLINK-1525,46066,53.0577,0.0001564,15.30630756,472.8575481316266,475.00087444251767,1 46066U 20055AR  26089.47356464  .00089723  00000+0  29651-2 0  9991,2 46066  53.0577   0.5330 0001564 148.8440 211.2652 15.30630756312479
STARLINK-1536,46070,53.0572,0.0001534,15.10189123,534.5621591747731,536.6833006599127,1 46070U 20055AV  26089.58336806  .00014385  00000+0  88674-3 0  9999,2 46070  53.0572   2.7754 0001534  88.2670 298.7995 15.10189123  5735
STARLINK-1542,46073,53.0543,0.000134,15.06399658,546.2846092719983,548.1406029664386,1 46073U 20055AY  26089.04488965 -.00000578  00000+0 -19891-4 0  9994,2 46073  53.0543   5.2404 0001340  92.5834 267.5309 15.06399658312376
STARLINK-1549,46074,53.0565,0.0001878,15.07106078,543.7482012635473,546.3485496905769,1 46074U 20055AZ  26088.10057513  .00092321  00000+0  60202-2 0  9997,2 46074  53.0565   9.4716 0001878 100.4469 259.6732 15.07106078312221
STARLINK-1551,46075,53.0558,0.0001904,15.06395227,545.907597383748,548.54477568518,1 46075U 20055BA  26089.45402522  .00000022  00000+0  20405-4 0  9991,2 46075  53.0558   3.4055 0001904  85.8116 274.3090 15.06395227312438
STARLINK-1552,46076,53.0553,0.0001419,15.06385324,546.2738247866655,548.2392514727871,1 46076U 20055BB  26089.47983517 -.00000402  00000+0 -81033-5 0  9991,2 46076  53.0553   3.2888 0001419  93.9799 266.1353 15.06385324312421
STARLINK-1559,46077,53.0273,0.0004121,15.31593457,468.23505967562323,473.8801658754728,1 46077U 20055BC  26089.39007579  .00057002  00000+0  18403-2 0  9992,2 46077  53.0273 337.4347 0004121 113.3543 246.7891 15.31593457312753
STARLINK-1566,46079,53.055,0.000142,15.06420922,546.1640453738664,548.1308261536233,1 46079U 20055BE  26089.49824639  .00010526  00000+0  72407-3 0  9994,2 46079  53.0550   3.2051 0001420  86.1803 273.9348 15.06420922312441
STARLINK-1568,46080,53.0607,0.0005317,15.48146517,418.53260550382856,425.7640289101464,1 46080U 20055BF  26089.55014548  .00045150  00000+0  84852-3 0  9991,2 46080  53.0607 293.3020 0005317 186.5915 173.5023 15.48146517313427
STARLINK-1578,46082,53.0535,0.0002061,15.10152934,534.3082341263525,537.1581314156901,1 46082U 20055BH  26089.58336806  .00060082  00000+0  36279-2 0  9990,2 46082  53.0535   2.7830 0002061  94.3920 307.6822 15.10152934  5733
STARLINK-1579,46083,53.0542,0.0001399,15.0640129,546.238748566755,548.1764599870312,1 46083U 20055BJ  26089.48256088  .00001179  00000+0  97997-4 0  9991,2 46083  53.0542   3.2673 0001399  92.6542 267.4607 15.06401290312436
STARLINK-1585,46117,53.0336,0.0007631,16.00262138,268.6161698181977,278.7681915137291,1 46117U 20057A   26089.58336806  .00815701  32255-3  15353-2 0  9998,2 46117  53.0336 140.4996 0007631  19.5589 119.6154 16.00262138  5997
STARLINK-1593,46119,53.0406,0.0005447,15.82744901,319.0321489798789,326.33202129122583,1 46119U 20057C   26089.58336806  .00343806  00000+0  15366-2 0  9995,2 46119  53.0406 165.7756 0005447   3.9235  88.3321 15.82744901  5922
STARLINK-1621,46127,53.0409,0.0008254,15.86591547,306.3251611661535,317.3689868755482,1 46127U 20057L   26089.58336806  .00405484  00000+0  14953-2 0  9996,2 46127  53.0409 138.5675 0008254   2.5651 296.9657 15.86591547  5882
STARLINK-1622,46128,53.0207,0.0002606,15.679628,362.97401879487825,366.4884017060622,1 46128U 20057M   26089.37395341  .00108057  00000+0  95082-3 0  9992,2 46128  53.0207 122.4574 0002606 324.7707  35.3136 15.67962800310604
